{
  "type": "FeatureCollection",
  "features": [
    {
      "type": "Feature",
      "properties": {
        "norad_id": 33412,
        "name": "COSMO-SKYMED 3",
        "group": "resource",
        "lat": 59.35686642757551,
        "lon": 179.01473925257443,
        "alt_km": 551.7782379545042,
        "timestamp": "2025-12-08T03:50:06.661578+00:00",
        "meta_object_name": "COSMO-SKYMED 3",
        "meta_object_id": "2008-054A",
        "meta_epoch": "2025-12-07T06:49:39.214560",
        "meta_mean_motion": 15.05273536,
        "meta_eccentricity": 0.00157376,
        "meta_inclination": 97.8455,
        "meta_ra_of_asc_node": 191.5845,
        "meta_arg_of_pericenter": 192.4817,
        "meta_mean_anomaly": 167.6022,
        "meta_ephemeris_type": 0,
        "meta_classification_type": "U",
        "meta_norad_cat_id": 33412,
        "meta_element_set_no": 999,
        "meta_rev_at_epoch": 92805,
        "meta_bstar": 0.00054027983,
        "meta_mean_motion_dot": 7.682e-05,
        "meta_mean_motion_ddot": 0,
        "tle_line1": "1 33412U 08054A   25341.28448165  .00007682  00000+0  54028-3 0  9997",
        "tle_line2": "2 33412  97.8455 191.5845 0015737 192.4817 167.6022 15.05273536928056"
      },
      "geometry": {
        "type": "Point",
        "coordinates": [
          179.01473925257443,
          59.35686642757551
        ]
      }
    },
    {
      "type": "Feature",
      "properties": {
        "norad_id": 33446,
        "name": "YAOGAN-4",
        "group": "resource",
        "lat": 53.969620218295766,
        "lon": -98.72700618035606,
        "alt_km": 613.4330245850533,
        "timestamp": "2025-12-08T03:50:06.661588+00:00",
        "meta_object_name": "YAOGAN-4",
        "meta_object_id": "2008-061A",
        "meta_epoch": "2025-12-07T06:32:00.675456",
        "meta_mean_motion": 14.82655941,
        "meta_eccentricity": 0.00140606,
        "meta_inclination": 97.9176,
        "meta_ra_of_asc_node": 271.4251,
        "meta_arg_of_pericenter": 341.8774,
        "meta_mean_anomaly": 18.1937,
        "meta_ephemeris_type": 0,
        "meta_classification_type": "U",
        "meta_norad_cat_id": 33446,
        "meta_element_set_no": 999,
        "meta_rev_at_epoch": 91722,
        "meta_bstar": 0.0003352026,
        "meta_mean_motion_dot": 2.652e-05,
        "meta_mean_motion_ddot": 0,
        "tle_line1": "1 33446U 08061A   25341.27223004  .00002652  00000+0  33520-3 0  9990",
        "tle_line2": "2 33446  97.9176 271.4251 0014060 341.8774  18.1937 14.82655941917223"
      },
      "geometry": {
        "type": "Point",
        "coordinates": [
          -98.72700618035606,
          53.969620218295766
        ]
      }
    },
    {
      "type": "Feature",
      "properties": {
        "norad_id": 33492,
        "name": "GOSAT (IBUKI)",
        "group": "resource",
        "lat": -4.4661411628884355,
        "lon": 91.46205003860183,
        "alt_km": 672.4704754312861,
        "timestamp": "2025-12-08T03:50:06.661598+00:00",
        "meta_object_name": "GOSAT (IBUKI)",
        "meta_object_id": "2009-002A",
        "meta_epoch": "2025-12-07T04:56:47.382144",
        "meta_mean_motion": 14.67538112,
        "meta_eccentricity": 0.0001013,
        "meta_inclination": 98.077,
        "meta_ra_of_asc_node": 89.8863,
        "meta_arg_of_pericenter": 87.0443,
        "meta_mean_anomaly": 273.0877,
        "meta_ephemeris_type": 0,
        "meta_classification_type": "U",
        "meta_norad_cat_id": 33492,
        "meta_element_set_no": 999,
        "meta_rev_at_epoch": 90330,
        "meta_bstar": 0.00031591468,
        "meta_mean_motion_dot": 1.744e-05,
        "meta_mean_motion_ddot": 0,
        "tle_line1": "1 33492U 09002A   25341.20610396  .00001744  00000+0  31591-3 0  9991",
        "tle_line2": "2 33492  98.0770  89.8863 0001013  87.0443 273.0877 14.67538112903304"
      },
      "geometry": {
        "type": "Point",
        "coordinates": [
          91.46205003860183,
          -4.4661411628884355
        ]
      }
    },
    {
      "type": "Feature",
      "properties": {
        "norad_id": 35681,
        "name": "DEIMOS-1",
        "group": "resource",
        "lat": -47.80897837015348,
        "lon": 151.57777508487314,
        "alt_km": 653.5442537659101,
        "timestamp": "2025-12-08T03:50:06.661609+00:00",
        "meta_object_name": "DEIMOS-1",
        "meta_object_id": "2009-041A",
        "meta_epoch": "2025-12-07T06:53:16.658304",
        "meta_mean_motion": 14.74940019,
        "meta_eccentricity": 0.00026955,
        "meta_inclination": 97.7153,
        "meta_ra_of_asc_node": 142.1446,
        "meta_arg_of_pericenter": 90.5898,
        "meta_mean_anomaly": 269.5621,
        "meta_ephemeris_type": 0,
        "meta_classification_type": "U",
        "meta_norad_cat_id": 35681,
        "meta_element_set_no": 999,
        "meta_rev_at_epoch": 87859,
        "meta_bstar": 0.00020617173,
        "meta_mean_motion_dot": 1.338e-05,
        "meta_mean_motion_ddot": 0,
        "tle_line1": "1 35681U 09041A   25341.28699836  .00001338  00000+0  20617-3 0  9996",
        "tle_line2": "2 35681  97.7153 142.1446 0002695  90.5898 269.5621 14.74940019878597"
      },
      "geometry": {
        "type": "Point",
        "coordinates": [
          151.57777508487314,
          -47.80897837015348
        ]
      }
    },
    {
      "type": "Feature",
      "properties": {
        "norad_id": 35682,
        "name": "DUBAISAT-1",
        "group": "resource",
        "lat": -70.57042408968272,
        "lon": -90.52352912779091,
        "alt_km": 652.3508839112428,
        "timestamp": "2025-12-08T03:50:06.661620+00:00",
        "meta_object_name": "DUBAISAT-1",
        "meta_object_id": "2009-041B",
        "meta_epoch": "2025-12-07T07:09:04.996800",
        "meta_mean_motion": 14.74580627,
        "meta_eccentricity": 0.00098868,
        "meta_inclination": 97.979,
        "meta_ra_of_asc_node": 112.0582,
        "meta_arg_of_pericenter": 333.3498,
        "meta_mean_anomaly": 26.7201,
        "meta_ephemeris_type": 0,
        "meta_classification_type": "U",
        "meta_norad_cat_id": 35682,
        "meta_element_set_no": 999,
        "meta_rev_at_epoch": 87681,
        "meta_bstar": 0.00040160615,
        "meta_mean_motion_dot": 2.627e-05,
        "meta_mean_motion_ddot": 0,
        "tle_line1": "1 35682U 09041B   25341.29797450  .00002627  00000+0  40161-3 0  9997",
        "tle_line2": "2 35682  97.9790 112.0582 0009886 333.3498  26.7201 14.74580627876812"
      },
      "geometry": {
        "type": "Point",
        "coordinates": [
          -90.52352912779091,
          -70.57042408968272
        ]
      }
    },
    {
      "type": "Feature",
      "properties": {
        "norad_id": 35931,
        "name": "OCEANSAT-2",
        "group": "resource",
        "lat": -43.70949160165113,
        "lon": 155.2797313361155,
        "alt_km": 913.3881350102574,
        "timestamp": "2025-12-08T03:50:06.661631+00:00",
        "meta_object_name": "OCEANSAT-2",
        "meta_object_id": "2009-051A",
        "meta_epoch": "2025-12-07T06:10:47.174880",
        "meta_mean_motion": 13.99625869,
        "meta_eccentricity": 0.00164339,
        "meta_inclination": 98.2227,
        "meta_ra_of_asc_node": 342.4141,
        "meta_arg_of_pericenter": 59.311,
        "meta_mean_anomaly": 300.9673,
        "meta_ephemeris_type": 0,
        "meta_classification_type": "U",
        "meta_norad_cat_id": 35931,
        "meta_element_set_no": 999,
        "meta_rev_at_epoch": 85248,
        "meta_bstar": -7.8819889e-05,
        "meta_mean_motion_dot": -1.53e-06,
        "meta_mean_motion_ddot": 0,
        "tle_line1": "1 35931U 09051A   25341.25749045 -.00000153  00000+0 -78820-4 0  9996",
        "tle_line2": "2 35931  98.2227 342.4141 0016433  59.3110 300.9673 13.99625869852481"
      },
      "geometry": {
        "type": "Point",
        "coordinates": [
          155.2797313361155,
          -43.70949160165113
        ]
      }
    },
    {
      "type": "Feature",
      "properties": {
        "norad_id": 35946,
        "name": "WORLDVIEW-2 (WV-2)",
        "group": "resource",
        "lat": 76.09974409634206,
        "lon": 16.251823878478007,
        "alt_km": 755.2047689290939,
        "timestamp": "2025-12-08T03:50:06.661642+00:00",
        "meta_object_name": "WORLDVIEW-2 (WV-2)",
        "meta_object_id": "2009-055A",
        "meta_epoch": "2025-12-07T07:25:31.317600",
        "meta_mean_motion": 14.37649091,
        "meta_eccentricity": 0.0005394,
        "meta_inclination": 98.4766,
        "meta_ra_of_asc_node": 52.4694,
        "meta_arg_of_pericenter": 79.932,
        "meta_mean_anomaly": 280.2475,
        "meta_ephemeris_type": 0,
        "meta_classification_type": "U",
        "meta_norad_cat_id": 35946,
        "meta_element_set_no": 999,
        "meta_rev_at_epoch": 84807,
        "meta_bstar": 0.00014432801,
        "meta_mean_motion_dot": 3.9e-06,
        "meta_mean_motion_ddot": 0,
        "tle_line1": "1 35946U 09055A   25341.30939025  .00000390  00000+0  14433-3 0  9991",
        "tle_line2": "2 35946  98.4766  52.4694 0005394  79.9320 280.2475 14.37649091848079"
      },
      "geometry": {
        "type": "Point",
        "coordinates": [
          16.251823878478007,
          76.09974409634206
        ]
      }
    }
  ]
}